{"type": "FeatureCollection", "features": [{"type": "Feature", "properties": {"norad_id": 32275, "name": "COSMOS 2433 (720)", "group": "glo-ops", "lat": -22.239387605406755, "lon": -48.86493933311979, "alt_km": 19130.60245031025, "timestamp": "2025-12-24T18:55:56.329161+00:00", "meta": {"OBJECT_NAME": "COSMOS 2433 (720)", "OBJECT_ID": "2007-052A", "EPOCH": "2025-12-22T00:07:36.568704", "MEAN_MOTION": 2.13104226, "ECCENTRICITY": 0.00051704, "INCLINATION": 65.6781, "RA_OF_ASC_NODE": 321.8942, "ARG_OF_PERICENTER": 255.846, "MEAN_ANOMALY": 104.0915, "EPHEMERIS_TYPE": 0, "CLASSIFICATION_TYPE": "U", "NORAD_CAT_ID": 32275, "ELEMENT_SET_NO": 999, "REV_AT_EPOCH": 14128, "BSTAR": 0, "MEAN_MOTION_DOT": -4.2e-07, "MEAN_MOTION_DDOT": 0}, "tle": {"line1": "1 32275U 07052A   25356.00528436 -.00000042  00000+0  00000+0 0  9997", "line2": "2 32275  65.6781 321.8942 0005170 255.8460 104.0915  2.13104226141283"}}, "geometry": {"type": "Point", "coordinates": [-48.86493933311979, -22.239387605406755]}}, {"type": "Feature", "properties": {"norad_id": 32276, "name": "COSMOS 2432 (719)", "group": "glo-ops", "lat": -63.91172161122107, "lon": -105.37297620774136, "alt_km": 19112.54050547981, "timestamp": "2025-12-24T18:55:56.329185+00:00", "meta": {"OBJECT_NAME": "COSMOS 2432 (719)", "OBJECT_ID": "2007-052B", "EPOCH": "2025-12-24T04:32:38.772960", "MEAN_MOTION": 2.13103387, "ECCENTRICITY": 0.00113791, "INCLINATION": 65.6931, "RA_OF_ASC_NODE": 321.9458, "ARG_OF_PERICENTER": 314.7871, "MEAN_ANOMALY": 225.1187, "EPHEMERIS_TYPE": 0, "CLASSIFICATION_TYPE": "U", "NORAD_CAT_ID": 32276, "ELEMENT_SET_NO": 999, "REV_AT_EPOCH": 14135, "BSTAR": 0, "MEAN_MOTION_DOT": -3.3e-07, "MEAN_MOTION_DDOT": 0}, "tle": {"line1": "1 32276U 07052B   25358.18933765 -.00000033  00000+0  00000+0 0  9994", "line2": "2 32276  65.6931 321.9458 0011379 314.7871 225.1187  2.13103387141354"}}, "geometry": {"type": "Point", "coordinates": [-105.37297620774136, -63.91172161122107]}}, {"type": "Feature", "properties": {"norad_id": 32393, "name": "COSMOS 2434 (721)", "group": "glo-ops", "lat": -40.401851812782205, "lon": 41.992701119902144, "alt_km": 19145.967970358786, "timestamp": "2025-12-24T18:55:56.329201+00:00", "meta": {"OBJECT_NAME": "COSMOS 2434 (721)", "OBJECT_ID": "2007-065A", "EPOCH": "2025-12-24T05:14:54.087648", "MEAN_MOTION": 2.13101448, "ECCENTRICITY": 0.00048186, "INCLINATION": 64.3158, "RA_OF_ASC_NODE": 197.8158, "ARG_OF_PERICENTER": 72.4186, "MEAN_ANOMALY": 76.1522, "EPHEMERIS_TYPE": 0, "CLASSIFICATION_TYPE": "U", "NORAD_CAT_ID": 32393, "ELEMENT_SET_NO": 999, "REV_AT_EPOCH": 14004, "BSTAR": 0, "MEAN_MOTION_DOT": 9.8e-07, "MEAN_MOTION_DDOT": 0}, "tle": {"line1": "1 32393U 07065A   25358.21868157  .00000098  00000+0  00000+0 0  9994", "line2": "2 32393  64.3158 197.8158 0004818  72.4186  76.1522  2.13101448140043"}}, "geometry": {"type": "Point", "coordinates": [41.992701119902144, -40.401851812782205]}}, {"type": "Feature", "properties": {"norad_id": 32395, "name": "COSMOS 2436 (723)", "group": "glo-ops", "lat": -0.9816436983099845, "lon": -162.60128316666322, "alt_km": 19086.13818734401, "timestamp": "2025-12-24T18:55:56.329214+00:00", "meta": {"OBJECT_NAME": "COSMOS 2436 (723)", "OBJECT_ID": "2007-065C", "EPOCH": "2025-12-23T14:51:15.098400", "MEAN_MOTION": 2.13100222, "ECCENTRICITY": 0.00178112, "INCLINATION": 64.3245, "RA_OF_ASC_NODE": 197.9064, "ARG_OF_PERICENTER": 10.214, "MEAN_ANOMALY": 171.2752, "EPHEMERIS_TYPE": 0, "CLASSIFICATION_TYPE": "U", "NORAD_CAT_ID": 32395, "ELEMENT_SET_NO": 999, "REV_AT_EPOCH": 13998, "BSTAR": 0, "MEAN_MOTION_DOT": 9.6e-07, "MEAN_MOTION_DDOT": 0}, "tle": {"line1": "1 32395U 07065C   25357.61892475  .00000096  00000+0  00000+0 0  9997", "line2": "2 32395  64.3245 197.9064 0017811  10.2140 171.2752  2.13100222139988"}}, "geometry": {"type": "Point", "coordinates": [-162.60128316666322, -0.9816436983099845]}}, {"type": "Feature", "properties": {"norad_id": 36111, "name": "COSMOS 2456 (730)", "group": "glo-ops", "lat": 20.835656324558244, "lon": 87.19733753030474, "alt_km": 19127.235142788293, "timestamp": "2025-12-24T18:55:56.329226+00:00", "meta": {"OBJECT_NAME": "COSMOS 2456 (730)", "OBJECT_ID": "2009-070A", "EPOCH": "2025-12-24T01:59:16.692576", "MEAN_MOTION": 2.13103745, "ECCENTRICITY": 0.00036505, "INCLINATION": 64.9059, "RA_OF_ASC_NODE": 76.9503, "ARG_OF_PERICENTER": 295.0224, "MEAN_ANOMALY": 266.4736, "EPHEMERIS_TYPE": 0, "CLASSIFICATION_TYPE": "U", "NORAD_CAT_ID": 36111, "ELEMENT_SET_NO": 999, "REV_AT_EPOCH": 12469, "BSTAR": 0, "MEAN_MOTION_DOT": -1e-08, "MEAN_MOTION_DDOT": 0}, "tle": {"line1": "1 36111U 09070A   25358.08283209 -.00000001  00000+0  00000+0 0  9993", "line2": "2 36111  64.9059  76.9503 0003650 295.0224 266.4736  2.13103745124697"}}, "geometry": {"type": "Point", "coordinates": [87.19733753030474, 20.835656324558244]}}, {"type": "Feature", "properties": {"norad_id": 36112, "name": "COSMOS 2457 (733)", "group": "glo-ops", "lat": 25.0225776941654, "lon": -115.837523140159, "alt_km": 19115.908929373716, "timestamp": "2025-12-24T18:55:56.329238+00:00", "meta": {"OBJECT_NAME": "COSMOS 2457 (733)", "OBJECT_ID": "2009-070B", "EPOCH": "2025-12-23T15:49:23.328192", "MEAN_MOTION": 2.13101141, "ECCENTRICITY": 0.00045057, "INCLINATION": 64.8913, "RA_OF_ASC_NODE": 76.812, "ARG_OF_PERICENTER": 162.7292, "MEAN_ANOMALY": 202.8862, "EPHEMERIS_TYPE": 0, "CLASSIFICATION_TYPE": "U", "NORAD_CAT_ID": 36112, "ELEMENT_SET_NO": 999, "REV_AT_EPOCH": 12469, "BSTAR": 0, "MEAN_MOTION_DOT": -1e-08, "MEAN_MOTION_DDOT": 0}, "tle": {"line1": "1 36112U 09070B   25357.65929778 -.00000001  00000+0  00000+0 0  9994", "line2": "2 36112  64.8913  76.8120 0004505 162.7292 202.8862  2.13101141124697"}}, "geometry": {"type": "Point", "coordinates": [-115.837523140159, 25.0225776941654]}}, {"type": "Feature", "properties": {"norad_id": 36402, "name": "COSMOS 2460 (732)", "group": "glo-ops", "lat": 25.41550369507434, "lon": 127.85958448187631, "alt_km": 19131.032778151515, "timestamp": "2025-12-24T18:55:56.329250+00:00", "meta": {"OBJECT_NAME": "COSMOS 2460 (732)", "OBJECT_ID": "2010-007C", "EPOCH": "2025-12-24T05:56:36.176352", "MEAN_MOTION": 2.1310636, "ECCENTRICITY": 0.00024969, "INCLINATION": 65.5233, "RA_OF_ASC_NODE": 320.3848, "ARG_OF_PERICENTER": 284.0836, "MEAN_ANOMALY": 172.5466, "EPHEMERIS_TYPE": 0, "CLASSIFICATION_TYPE": "U", "NORAD_CAT_ID": 36402, "ELEMENT_SET_NO": 999, "REV_AT_EPOCH": 12300, "BSTAR": 0, "MEAN_MOTION_DOT": -3.3e-07, "MEAN_MOTION_DDOT": 0}, "tle": {"line1": "1 36402U 10007C   25358.24764093 -.00000033  00000+0  00000+0 0  9996", "line2": "2 36402  65.5233 320.3848 0002496 284.0836 172.5466  2.13106360123000"}}, "geometry": {"type": "Point", "coordinates": [127.85958448187631, 25.41550369507434]}}, {"type": "Feature", "properties": {"norad_id": 37867, "name": "COSMOS 2476 (744)", "group": "glo-ops", "lat": -57.51465265950064, "lon": 32.21389114523451, "alt_km": 19101.040342658187, "timestamp": "2025-12-24T18:55:56.329261+00:00", "meta": {"OBJECT_NAME": "COSMOS 2476 (744)", "OBJECT_ID": "2011-064A", "EPOCH": "2025-12-23T12:51:54.046080", "MEAN_MOTION": 2.13103692, "ECCENTRICITY": 0.00245495, "INCLINATION": 65.1675, "RA_OF_ASC_NODE": 78.8064, "ARG_OF_PERICENTER": 235.5256, "MEAN_ANOMALY": 174.828, "EPHEMERIS_TYPE": 0, "CLASSIFICATION_TYPE": "U", "NORAD_CAT_ID": 37867, "ELEMENT_SET_NO": 999, "REV_AT_EPOCH": 11002, "BSTAR": 0, "MEAN_MOTION_DOT": 1e-08, "MEAN_MOTION_DDOT": 0}, "tle": {"line1": "1 37867U 11064A   25357.53604220  .00000001  00000+0  00000+0 0  9996", "line2": "2 37867  65.1675  78.8064 0024549 235.5256 174.8280  2.13103692110029"}}, "geometry": {"type": "Point", "coordinates": [32.21389114523451, -57.51465265950064]}}, {"type": "Feature", "properties": {"norad_id": 37868, "name": "COSMOS 2477 (745)", "group": "glo-ops", "lat": 57.22023478988431, "lon": -147.01337449695322, "alt_km": 19153.54068408379, "timestamp": "2025-12-24T18:55:56.329273+00:00", "meta": {"OBJECT_NAME": "COSMOS 2477 (745)", "OBJECT_ID": "2011-064B", "EPOCH": "2025-12-23T05:19:57.056160", "MEAN_MOTION": 2.13103036, "ECCENTRICITY": 0.00215459, "INCLINATION": 65.1742, "RA_OF_ASC_NODE": 78.8944, "ARG_OF_PERICENTER": 235.4149, "MEAN_ANOMALY": 115.0574, "EPHEMERIS_TYPE": 0, "CLASSIFICATION_TYPE": "U", "NORAD_CAT_ID": 37868, "ELEMENT_SET_NO": 999, "REV_AT_EPOCH": 11000, "BSTAR": 0, "MEAN_MOTION_DOT": 0, "MEAN_MOTION_DDOT": 0}, "tle": {"line1": "1 37868U 11064B   25357.22218815  .00000000  00000+0  00000+0 0  9993", "line2": "2 37868  65.1742  78.8944 0021545 235.4149 115.0574  2.13103036110008"}}, "geometry": {"type": "Point", "coordinates": [-147.01337449695322, 57.22023478988431]}}, {"type": "Feature", "properties": {"norad_id": 37869, "name": "COSMOS 2475 (743)", "group": "glo-ops", "lat": 57.45865520378238, "lon": 125.27034760215523, "alt_km": 19191.784480404644, "timestamp": "2025-12-24T18:55:56.329296+00:00", "meta": {"OBJECT_NAME": "COSMOS 2475 (743)", "OBJECT_ID": "2011-064C", "EPOCH": "2025-12-24T08:29:46.345632", "MEAN_MOTION": 2.13101649, "ECCENTRICITY": 0.00267385, "INCLINATION": 65.1815, "RA_OF_ASC_NODE": 78.8765, "ARG_OF_PERICENTER": 249.1683, "MEAN_ANOMALY": 205.4891, "EPHEMERIS_TYPE": 0, "CLASSIFICATION_TYPE": "U", "NORAD_CAT_ID": 37869, "ELEMENT_SET_NO": 999, "REV_AT_EPOCH": 11004, "BSTAR": 0, "MEAN_MOTION_DOT": 1e-08, "MEAN_MOTION_DDOT": 0}, "tle": {"line1": "1 37869U 11064C   25358.35400863  .00000001  00000+0  00000+0 0  9996", "line2": "2 37869  65.1815  78.8765 0026738 249.1683 205.4891  2.13101649110043"}}, "geometry": {"type": "Point", "coordinates": [125.27034760215523, 57.45865520378238]}}]}